ONEWEB-0348             
1 49213U 21083AD  26081.06957663  .00000126  00000+0  27899-3 0  9998
2 49213  87.9156 291.8351 0001403  70.7814 289.3471 13.20771666225317
ONEWEB-0350             
1 49214U 21083AE  26081.20204744 -.00000251  00000+0 -72169-3 0  9991
2 49214  87.9022 337.5295 0001792  68.7016 291.4304 13.13471565219518
ONEWEB-0351             
1 49215U 21083AF  26081.06312903  .00000077  00000+0  15651-3 0  9990
2 49215  87.9156 291.8351 0002598  88.7116 271.4315 13.20771681225270
ONEWEB-0352             
1 49216U 21083AG  26081.25876254 -.00000026  00000+0 -10642-3 0  9997
2 49216  87.9017 337.5346 0002179  82.1491 277.9886 13.13471603219616
ONEWEB-0354             
1 49217U 21083AH  26081.01275492 -.00000055  00000+0 -16705-3 0  9997
2 49217  87.9151 291.8439 0001685  78.4820 281.6503 13.20770852225303
ONEWEB-0355             
1 49218U 21083AJ  26081.21150723 -.00000160  00000+0 -47411-3 0  9994
2 49218  87.9017 337.5532 0001963  76.0332 284.1016 13.13470585219489
ONEWEB-0357             
1 49219U 21083AK  26081.00959759  .00000037  00000+0  59741-4 0  9999
2 49219  87.9151 291.8394 0001873  88.0638 272.0710 13.20771381225300
ONEWEB-0332             
1 49279U 21090A   26080.91153323  .00000113  00000+0  27154-3 0  9992
2 49279  87.8962 307.1280 0001737  90.2331 269.8998 13.14503194216113
ONEWEB-0347             
1 49280U 21090B   26081.07589038  .00000095  00000+0  20222-3 0  9996
2 49280  87.9155 291.8350 0001698  97.6556 262.4770 13.20771436219543
ONEWEB-0349             
1 49281U 21090C   26081.10745655 -.00000056  00000+0 -17029-3 0  9990
2 49281  87.9152 291.8289 0001716  87.1432 272.9897 13.20771258218334
ONEWEB-0353             
1 49282U 21090D   26081.05583381  .00000070  00000+0  15488-3 0  9992
2 49282  87.8963 307.0935 0001753  92.9197 267.2133 13.14504186216138
ONEWEB-0356             
1 49283U 21090E   26081.10587176 -.00000044  00000+0 -13940-3 0  9999
2 49283  87.9153 291.8224 0000993 111.5383 248.5856 13.20771376218334
ONEWEB-0358             
1 49284U 21090F   26081.06011141  .00000083  00000+0  17130-3 0  9995
2 49284  87.9158 291.8343 0001561  85.2459 274.8853 13.20771004219052
ONEWEB-0359             
1 49285U 21090G   26081.05695150 -.00000008  00000+0 -51775-4 0  9996
2 49285  87.9151 291.8322 0001629  77.8393 282.2923 13.20771733219030
ONEWEB-0360             
1 49286U 21090H   26081.12323351 -.00000022  00000+0 -87235-4 0  9992
2 49286  87.9153 291.8251 0001693  81.8611 278.2714 13.20771195218352
ONEWEB-0361             
1 49287U 21090J   26081.10429447 -.00000075  00000+0 -21524-3 0  9990
2 49287  87.9155 291.8269 0001467  88.5573 271.5728 13.20771650218801
