[{"OBJECT_NAME":"ONEWEB-0348","OBJECT_ID":"2021-083AD","EPOCH":"2026-03-22T01:40:11.420832","MEAN_MOTION":13.20771666,"ECCENTRICITY":0.00014038,"INCLINATION":87.9156,"RA_OF_ASC_NODE":291.8351,"ARG_OF_PERICENTER":70.7814,"MEAN_ANOMALY":289.3471,"EPHEMERIS_TYPE":0,"CLASSIFICATION_TYPE":"U","NORAD_CAT_ID":49213,"ELEMENT_SET_NO":999,"REV_AT_EPOCH":22531,"BSTAR":0.00027899061,"MEAN_MOTION_DOT":1.26e-6,"MEAN_MOTION_DDOT":0},{"OBJECT_NAME":"ONEWEB-0350","OBJECT_ID":"2021-083AE","EPOCH":"2026-03-22T04:50:56.898816","MEAN_MOTION":13.13471565,"ECCENTRICITY":0.00017926,"INCLINATION":87.9022,"RA_OF_ASC_NODE":337.5295,"ARG_OF_PERICENTER":68.7016,"MEAN_ANOMALY":291.4304,"EPHEMERIS_TYPE":0,"CLASSIFICATION_TYPE":"U","NORAD_CAT_ID":49214,"ELEMENT_SET_NO":999,"REV_AT_EPOCH":21951,"BSTAR":-0.00072168678,"MEAN_MOTION_DOT":-2.51e-6,"MEAN_MOTION_DDOT":0},{"OBJECT_NAME":"ONEWEB-0351","OBJECT_ID":"2021-083AF","EPOCH":"2026-03-22T01:30:54.348192","MEAN_MOTION":13.20771681,"ECCENTRICITY":0.00025981,"INCLINATION":87.9156,"RA_OF_ASC_NODE":291.8351,"ARG_OF_PERICENTER":88.7116,"MEAN_ANOMALY":271.4315,"EPHEMERIS_TYPE":0,"CLASSIFICATION_TYPE":"U","NORAD_CAT_ID":49215,"ELEMENT_SET_NO":999,"REV_AT_EPOCH":22527,"BSTAR":0.00015650923,"MEAN_MOTION_DOT":7.7e-7,"MEAN_MOTION_DDOT":0},{"OBJECT_NAME":"ONEWEB-0352","OBJECT_ID":"2021-083AG","EPOCH":"2026-03-22T06:12:37.083456","MEAN_MOTION":13.13471603,"ECCENTRICITY":0.00021795,"INCLINATION":87.9017,"RA_OF_ASC_NODE":337.5346,"ARG_OF_PERICENTER":82.1491,"MEAN_ANOMALY":277.9886,"EPHEMERIS_TYPE":0,"CLASSIFICATION_TYPE":"U","NORAD_CAT_ID":49216,"ELEMENT_SET_NO":999,"REV_AT_EPOCH":21961,"BSTAR":-0.0001064182,"MEAN_MOTION_DOT":-2.6e-7,"MEAN_MOTION_DDOT":0},{"OBJECT_NAME":"ONEWEB-0354","OBJECT_ID":"2021-083AH","EPOCH":"2026-03-22T00:18:22.025088","MEAN_MOTION":13.20770852,"ECCENTRICITY":0.00016851,"INCLINATION":87.9151,"RA_OF_ASC_NODE":291.8439,"ARG_OF_PERICENTER":78.482,"MEAN_ANOMALY":281.6503,"EPHEMERIS_TYPE":0,"CLASSIFICATION_TYPE":"U","NORAD_CAT_ID":49217,"ELEMENT_SET_NO":999,"REV_AT_EPOCH":22530,"BSTAR":-0.000167054,"MEAN_MOTION_DOT":-5.5e-7,"MEAN_MOTION_DDOT":0},{"OBJECT_NAME":"ONEWEB-0355","OBJECT_ID":"2021-083AJ","EPOCH":"2026-03-22T05:04:34.224672","MEAN_MOTION":13.13470585,"ECCENTRICITY":0.00019632,"INCLINATION":87.9017,"RA_OF_ASC_NODE":337.5532,"ARG_OF_PERICENTER":76.0332,"MEAN_ANOMALY":284.1016,"EPHEMERIS_TYPE":0,"CLASSIFICATION_TYPE":"U","NORAD_CAT_ID":49218,"ELEMENT_SET_NO":999,"REV_AT_EPOCH":21948,"BSTAR":-0.00047411084,"MEAN_MOTION_DOT":-1.6e-6,"MEAN_MOTION_DDOT":0},{"OBJECT_NAME":"ONEWEB-0357","OBJECT_ID":"2021-083AK","EPOCH":"2026-03-22T00:13:49.231776","MEAN_MOTION":13.20771381,"ECCENTRICITY":0.00018735,"INCLINATION":87.9151,"RA_OF_ASC_NODE":291.8394,"ARG_OF_PERICENTER":88.0638,"MEAN_ANOMALY":272.071,"EPHEMERIS_TYPE":0,"CLASSIFICATION_TYPE":"U","NORAD_CAT_ID":49219,"ELEMENT_SET_NO":999,"REV_AT_EPOCH":22530,"BSTAR":5.9740856e-5,"MEAN_MOTION_DOT":3.7e-7,"MEAN_MOTION_DDOT":0},{"OBJECT_NAME":"ONEWEB-0332","OBJECT_ID":"2021-090A","EPOCH":"2026-03-21T21:52:36.471072","MEAN_MOTION":13.14503194,"ECCENTRICITY":0.00017373,"INCLINATION":87.8962,"RA_OF_ASC_NODE":307.128,"ARG_OF_PERICENTER":90.2331,"MEAN_ANOMALY":269.8998,"EPHEMERIS_TYPE":0,"CLASSIFICATION_TYPE":"U","NORAD_CAT_ID":49279,"ELEMENT_SET_NO":999,"REV_AT_EPOCH":21611,"BSTAR":0.0002715443,"MEAN_MOTION_DOT":1.13e-6,"MEAN_MOTION_DDOT":0},{"OBJECT_NAME":"ONEWEB-0347","OBJECT_ID":"2021-090B","EPOCH":"2026-03-22T01:49:16.928832","MEAN_MOTION":13.20771436,"ECCENTRICITY":0.00016981,"INCLINATION":87.9155,"RA_OF_ASC_NODE":291.835,"ARG_OF_PERICENTER":97.6556,"MEAN_ANOMALY":262.477,"EPHEMERIS_TYPE":0,"CLASSIFICATION_TYPE":"U","NORAD_CAT_ID":49280,"ELEMENT_SET_NO":999,"REV_AT_EPOCH":21954,"BSTAR":0.00020222012,"MEAN_MOTION_DOT":9.5e-7,"MEAN_MOTION_DDOT":0},{"OBJECT_NAME":"ONEWEB-0349","OBJECT_ID":"2021-090C","EPOCH":"2026-03-22T02:34:44.245920","MEAN_MOTION":13.20771258,"ECCENTRICITY":0.00017166,"INCLINATION":87.9152,"RA_OF_ASC_NODE":291.8289,"ARG_OF_PERICENTER":87.1432,"MEAN_ANOMALY":272.9897,"EPHEMERIS_TYPE":0,"CLASSIFICATION_TYPE":"U","NORAD_CAT_ID":49281,"ELEMENT_SET_NO":999,"REV_AT_EPOCH":21833,"BSTAR":-0.00017029343,"MEAN_MOTION_DOT":-5.6e-7,"MEAN_MOTION_DDOT":0},{"OBJECT_NAME":"ONEWEB-0353","OBJECT_ID":"2021-090D","EPOCH":"2026-03-22T01:20:24.041184","MEAN_MOTION":13.14504186,"ECCENTRICITY":0.00017536,"INCLINATION":87.8963,"RA_OF_ASC_NODE":307.0935,"ARG_OF_PERICENTER":92.9197,"MEAN_ANOMALY":267.2133,"EPHEMERIS_TYPE":0,"CLASSIFICATION_TYPE":"U","NORAD_CAT_ID":49282,"ELEMENT_SET_NO":999,"REV_AT_EPOCH":21613,"BSTAR":0.00015487755,"MEAN_MOTION_DOT":7.0e-7,"MEAN_MOTION_DDOT":0},{"OBJECT_NAME":"ONEWEB-0356","OBJECT_ID":"2021-090E","EPOCH":"2026-03-22T02:32:27.320064","MEAN_MOTION":13.20771376,"ECCENTRICITY":9.937e-5,"INCLINATION":87.9153,"RA_OF_ASC_NODE":291.8224,"ARG_OF_PERICENTER":111.5383,"MEAN_ANOMALY":248.5856,"EPHEMERIS_TYPE":0,"CLASSIFICATION_TYPE":"U","NORAD_CAT_ID":49283,"ELEMENT_SET_NO":999,"REV_AT_EPOCH":21833,"BSTAR":-0.00013939557,"MEAN_MOTION_DOT":-4.4e-7,"MEAN_MOTION_DDOT":0},{"OBJECT_NAME":"ONEWEB-0358","OBJECT_ID":"2021-090F","EPOCH":"2026-03-22T01:26:33.625824","MEAN_MOTION":13.20771004,"ECCENTRICITY":0.00015618,"INCLINATION":87.9158,"RA_OF_ASC_NODE":291.8343,"ARG_OF_PERICENTER":85.2459,"MEAN_ANOMALY":274.8853,"EPHEMERIS_TYPE":0,"CLASSIFICATION_TYPE":"U","NORAD_CAT_ID":49284,"ELEMENT_SET_NO":999,"REV_AT_EPOCH":21905,"BSTAR":0.00017130439,"MEAN_MOTION_DOT":8.3e-7,"MEAN_MOTION_DDOT":0},{"OBJECT_NAME":"ONEWEB-0359","OBJECT_ID":"2021-090G","EPOCH":"2026-03-22T01:22:00.609600","MEAN_MOTION":13.20771733,"ECCENTRICITY":0.00016299,"INCLINATION":87.9151,"RA_OF_ASC_NODE":291.8322,"ARG_OF_PERICENTER":77.8393,"MEAN_ANOMALY":282.2923,"EPHEMERIS_TYPE":0,"CLASSIFICATION_TYPE":"U","NORAD_CAT_ID":49285,"ELEMENT_SET_NO":999,"REV_AT_EPOCH":21903,"BSTAR":-5.1774885e-5,"MEAN_MOTION_DOT":-8.0e-8,"MEAN_MOTION_DDOT":0},{"OBJECT_NAME":"ONEWEB-0360","OBJECT_ID":"2021-090H","EPOCH":"2026-03-22T02:57:27.375264","MEAN_MOTION":13.20771195,"ECCENTRICITY":0.00016932,"INCLINATION":87.9153,"RA_OF_ASC_NODE":291.8251,"ARG_OF_PERICENTER":81.8611,"MEAN_ANOMALY":278.2714,"EPHEMERIS_TYPE":0,"CLASSIFICATION_TYPE":"U","NORAD_CAT_ID":49286,"ELEMENT_SET_NO":999,"REV_AT_EPOCH":21835,"BSTAR":-8.7234791e-5,"MEAN_MOTION_DOT":-2.2e-7,"MEAN_MOTION_DDOT":0},{"OBJECT_NAME":"ONEWEB-0361","OBJECT_ID":"2021-090J","EPOCH":"2026-03-22T02:30:11.042208","MEAN_MOTION":13.2077165,"ECCENTRICITY":0.00014672,"INCLINATION":87.9155,"RA_OF_ASC_NODE":291.8269,"ARG_OF_PERICENTER":88.5573,"MEAN_ANOMALY":271.5728,"EPHEMERIS_TYPE":0,"CLASSIFICATION_TYPE":"U","NORAD_CAT_ID":49287,"ELEMENT_SET_NO":999,"REV_AT_EPOCH":21880,"BSTAR":-0.00021524432,"MEAN_MOTION_DOT":-7.5e-7,"MEAN_MOTION_DDOT":0}]
